H1 CPF 01  gfz 2021 02 25 13  5562 terrasarx 
H2 0702601  6201 31698    2021 02 25 12 59 42 2021 03 02 00 00 42   120 1 1  0 0 0
H9
10 0 59271  59742.000000  0   -5256411.129  -2569349.761   3627564.824
10 0 59271  59862.000000  0   -5721142.468  -2580866.014   2831403.812
10 0 59271  59982.000000  0   -6085580.975  -2539998.011   1985380.289
10 0 59271  60102.000000  0   -6342457.566  -2449278.464   1104392.222
10 0 59271  60222.000000  0   -6486456.685  -2312229.775    203956.904
10 0 59271  60342.000000  0   -6514328.520  -2133266.336   -700069.814
10 0 59271  60462.000000  0   -6424960.566  -1917578.200  -1591782.618
10 0 59271  60582.000000  0   -6219404.133  -1670999.412  -2455515.400
10 0 59271  60702.000000  0   -5900857.638  -1399864.589  -3276122.770
10 0 59271  60822.000000  0   -5474607.599  -1110857.493  -4039249.077
10 0 59271  60942.000000  0   -4947929.607   -810855.432  -4731579.683
10 0 59271  61062.000000  0   -4329952.043   -506772.952  -5341069.918
10 0 59271  61182.000000  0   -3631485.813   -205409.293  -5857147.545
10 0 59271  61302.000000  0   -2864825.536     86697.515  -6270885.559
10 0 59271  61422.000000  0   -2043527.686    363406.468  -6575144.427
10 0 59271  61542.000000  0   -1182169.004    619096.436  -6764684.157
10 0 59271  61662.000000  0    -296089.813    848775.374  -6836244.613
10 0 59271  61782.000000  0     598873.230   1048174.449  -6788594.228
10 0 59271  61902.000000  0    1486662.092   1213824.202  -6622550.616
10 0 59271  62022.000000  0    2351280.025   1343114.175  -6340969.681
10 0 59271  62142.000000  0    3177074.661   1434333.903  -5948701.471
10 0 59271  62262.000000  0    3949017.546   1486694.163  -5452513.945
10 0 59271  62382.000000  0    4652976.224   1500328.863  -4860987.658
10 0 59271  62502.000000  0    5275977.065   1476277.701  -4184379.165
10 0 59271  62622.000000  0    5806451.141   1416449.055  -3434452.770
10 0 59271  62742.000000  0    6234458.229   1323563.605  -2624284.335
10 0 59271  62862.000000  0    6551885.281   1201079.872  -1768038.789
10 0 59271  62982.000000  0    6752612.843   1053103.067   -880722.840
10 0 59271  63102.000000  0    6832643.669    884278.420     22081.436
10 0 59271  63222.000000  0    6790189.292    699672.704    924496.267
10 0 59271  63342.000000  0    6625714.469    504646.436   1810634.364
10 0 59271  63462.000000  0    6341936.367    304718.811   2664888.583
10 0 59271  63582.000000  0    5943776.249    105430.343   3472215.315
10 0 59271  63702.000000  0    5438267.743    -87794.277   4218406.239
10 0 59271  63822.000000  0    4834423.641   -269777.434   4890341.229
10 0 59271  63942.000000  0    4143066.004   -435713.648   5476221.314
10 0 59271  64062.000000  0    3376620.592   -581283.969   5965773.237
10 0 59271  64182.000000  0    2548885.260   -702756.320   6350424.723
10 0 59271  64302.000000  0    1674775.528   -797071.520   6623448.723
10 0 59271  64422.000000  0     770051.783   -861912.812   6780076.328
10 0 59271  64542.000000  0    -148968.016   -895757.618   6817574.513
10 0 59271  64662.000000  0   -1065702.565   -897910.629   6735289.539
10 0 59271  64782.000000  0   -1963605.040   -868517.911   6534657.012
10 0 59271  64902.000000  0   -2826460.012   -808561.139   6219178.056
10 0 59271  65022.000000  0   -3638675.664   -719832.508   5794363.383
10 0 59271  65142.000000  0   -4385568.748   -604891.019   5267643.945
10 0 59271  65262.000000  0   -5053636.217   -467000.937   4648247.235
10 0 59271  65382.000000  0   -5630807.077   -310052.992   3947040.161
10 0 59271  65502.000000  0   -6106669.187   -138470.037   3176341.256
10 0 59271  65622.000000  0   -6472666.532     42901.008   2349706.260
10 0 59271  65742.000000  0   -6722263.816    228909.062   1481688.263
10 0 59271  65862.000000  0   -6851071.837    414226.679    587576.250
10 0 59271  65982.000000  0   -6856930.289    593482.977   -316882.010
10 0 59271  66102.000000  0   -6739945.107    761398.727  -1215766.683
10 0 59271  66222.000000  0   -6502479.105    912919.485  -2093274.600
10 0 59271  66342.000000  0   -6149099.587   1043343.495  -2934003.366
10 0 59271  66462.000000  0   -5686482.174   1148442.131  -3723229.142
10 0 59271  66582.000000  0   -5123270.865   1224568.208  -4447166.496
10 0 59271  66702.000000  0   -4469903.573   1268750.498  -5093206.496
10 0 59271  66822.000000  0   -3738406.522   1278772.270  -5650129.826
10 0 59271  66942.000000  0   -2942163.813   1253232.415  -6108292.019
10 0 59271  67062.000000  0   -2095666.857   1191587.513  -6459779.531
10 0 59271  67182.000000  0   -1214248.201   1094176.148  -6698535.174
10 0 59271  67302.000000  0    -313805.106    962223.763  -6820450.831
10 0 59271  67422.000000  0     589480.963    797828.574  -6823429.415
10 0 59271  67542.000000  0    1479427.030    603929.009  -6707418.960
10 0 59271  67662.000000  0    2340133.232    384252.239  -6474414.454
10 0 59271  67782.000000  0    3156260.890    143245.264  -6128426.892
10 0 59271  67902.000000  0    3913302.502   -114010.728  -5675421.063
10 0 59271  68022.000000  0    4597837.563   -381902.261  -5123222.246
10 0 59271  68142.000000  0    5197773.758   -654399.159  -4481393.696
10 0 59271  68262.000000  0    5702568.160   -925182.935  -3761081.514
10 0 59271  68382.000000  0    6103422.078  -1187785.062  -2974830.040
10 0 59271  68502.000000  0    6393446.122  -1435732.807  -2136369.765
10 0 59271  68622.000000  0    6567791.286  -1662699.079  -1260380.161
10 0 59271  68742.000000  0    6623741.219  -1862652.415   -362231.371
10 0 59271  68862.000000  0    6560763.381  -2030003.526    542289.709
10 0 59271  68982.000000  0    6380516.853  -2159744.800   1437264.599
10 0 59271  69102.000000  0    6086815.187  -2247578.440   2306932.267
10 0 59271  69222.000000  0    5685545.915  -2290030.723   3135975.812
10 0 59271  69342.000000  0    5184547.941  -2284547.991   3909800.249
10 0 59271  69462.000000  0    4593450.418  -2229573.078   4614793.641
10 0 59271  69582.000000  0    3923480.464  -2124599.868   5238568.044
10 0 59271  69702.000000  0    3187241.542  -1970206.025   5770178.130
10 0 59271  69822.000000  0    2398466.954  -1768061.932   6200309.541
10 0 59271  69942.000000  0    1571757.711  -1520916.532   6521436.240
10 0 59271  70062.000000  0     722308.001  -1232560.920   6727946.411
10 0 59271  70182.000000  0    -134376.555   -907769.441   6816234.755
10 0 59271  70302.000000  0    -982761.899   -552219.741   6784760.393
10 0 59271  70422.000000  0   -1807565.763   -172393.698   6634071.650
10 0 59271  70542.000000  0   -2594031.595    224540.338   6366797.185
10 0 59271  70662.000000  0   -3328192.180    630861.899   5987603.803
10 0 59271  70782.000000  0   -3997119.659   1038447.000   5503120.780
10 0 59271  70902.000000  0   -4589158.113   1438928.694   4921830.305
10 0 59271  71022.000000  0   -5094133.399   1823867.553   4253924.619
10 0 59271  71142.000000  0   -5503536.113   2184928.294   3511131.211
10 0 59271  71262.000000  0   -5810672.852   2514058.442   2706508.980
10 0 59271  71382.000000  0   -6010783.652   2803665.411   1854218.803
10 0 59271  71502.000000  0   -6101122.769   3046788.037    969271.070
10 0 59271  71622.000000  0   -6080998.500   3237257.757     67253.980
10 0 59271  71742.000000  0   -5951770.715   3369844.819   -835949.201
10 0 59271  71862.000000  0   -5716807.659   3440385.775  -1724448.575
10 0 59271  71982.000000  0   -5381402.434   3445889.829  -2582636.642
10 0 59271  72102.000000  0   -4952649.471   3384620.035  -3395469.520
10 0 59271  72222.000000  0   -4439287.201   3256148.344  -4148734.170
10 0 59271  72342.000000  0   -3851510.817   3061383.239  -4829295.694
10 0 59271  72462.000000  0   -3200761.344   2802570.269  -5425321.389
10 0 59271  72582.000000  0   -2499496.931   2483266.197  -5926477.230
10 0 59271  72702.000000  0   -1760950.770   2108288.328  -6324097.817
10 0 59271  72822.000000  0    -998878.930   1683638.541  -6611324.486
10 0 59271  72942.000000  0    -227306.500   1216405.720  -6783211.912
10 0 59271  73062.000000  0     539725.652    714647.515  -6836803.748
10 0 59271  73182.000000  0    1288409.592    187254.207  -6771179.255
10 0 59271  73302.000000  0    2005414.460   -356205.812  -6587467.689
10 0 59271  73422.000000  0    2678117.907   -905655.166  -6288830.042
10 0 59271  73542.000000  0    3294824.990  -1450689.502  -5880410.894
10 0 59271  73662.000000  0    3844969.936  -1980769.153  -5369258.726
10 0 59271  73782.000000  0    4319300.116  -2485420.118  -4764216.344
10 0 59271  73902.000000  0    4710036.685  -2954440.259  -4075778.290
10 0 59271  74022.000000  0    5011008.536  -3378105.279  -3315918.836
10 0 59271  74142.000000  0    5217758.471  -3747371.118  -2497891.916
10 0 59271  74262.000000  0    5327617.699  -4054068.409  -1636003.863
10 0 59271  74382.000000  0    5339745.348  -4291083.632   -745363.761
10 0 59271  74502.000000  0    5255132.208  -4452522.978    158384.626
10 0 59271  74622.000000  0    5076567.360  -4533854.487   1059344.182
10 0 59271  74742.000000  0    4808567.202  -4532022.723   1941653.030
10 0 59271  74862.000000  0    4457269.602  -4445533.514   2789772.723
10 0 59271  74982.000000  0    4030296.416  -4274506.624   3588769.520
10 0 59271  75102.000000  0    3536587.413  -4020696.341   4324583.580
10 0 59271  75222.000000  0    2986209.004  -3687478.125   4984280.332
10 0 59271  75342.000000  0    2390144.473  -3279801.843   5556277.871
10 0 59271  75462.000000  0    1760070.597  -2804114.434   6030548.599
10 0 59271  75582.000000  0    1108124.450  -2268252.511   6398790.037
10 0 59271  75702.000000  0     446667.252  -1681309.238   6654563.831
10 0 59271  75822.000000  0    -211951.130  -1053477.266   6793402.199
10 0 59271  75942.000000  0    -855622.060   -395869.763   6812881.114
10 0 59271  76062.000000  0   -1472699.630    279676.596   6712659.582
10 0 59271  76182.000000  0   -2052210.617    960814.181   6494485.272
99
